[{"OBJECT_NAME":"JILIN-1 KUANFU 01C","OBJECT_ID":"2022-048A","EPOCH":"2026-03-09T22:44:12.026688","MEAN_MOTION":15.09601076,"ECCENTRICITY":0.00140886,"INCLINATION":97.5312,"RA_OF_ASC_NODE":147.8831,"ARG_OF_PERICENTER":308.8335,"MEAN_ANOMALY":51.1636,"EPHEMERIS_TYPE":0,"CLASSIFICATION_TYPE":"U","NORAD_CAT_ID":52443,"ELEMENT_SET_NO":999,"REV_AT_EPOCH":21222,"BSTAR":0.00028577595,"MEAN_MOTION_DOT":4.539e-5,"MEAN_MOTION_DDOT":0},{"OBJECT_NAME":"STARLINK-4216","OBJECT_ID":"2022-076AN","EPOCH":"2026-03-09T06:45:49.992768","MEAN_MOTION":15.08834943,"ECCENTRICITY":0.0001268,"INCLINATION":53.2168,"RA_OF_ASC_NODE":85.9525,"ARG_OF_PERICENTER":89.9874,"MEAN_ANOMALY":270.1264,"EPHEMERIS_TYPE":0,"CLASSIFICATION_TYPE":"U","NORAD_CAT_ID":53022,"ELEMENT_SET_NO":999,"REV_AT_EPOCH":20292,"BSTAR":6.394333e-6,"MEAN_MOTION_DOT":-1.86e-6,"MEAN_MOTION_DDOT":0}]
